ONEWEB-0647             
1 56079U 23043AK  24110.86697501 -.00000041  00000+0 -14312-3 0  9999
2 56079  87.9035  56.1074 0001676  74.1089 286.0226 13.15547594 52774
ONEWEB-0651             
1 56080U 23043AL  24111.39463001  .00000055  00000+0  11107-3 0  9998
2 56080  87.9038  55.9763 0001935  69.7764 290.3574 13.15548730 52844
ONEWEB-0718             
1 56081U 23043AM  24110.85748629  .00000024  00000+0  30857-4 0  9991
2 56081  87.9037  56.0704 0002456  89.6194 270.5218 13.15548553 52789
GSLV R/B                
1 56082U 23043AN  24111.20529846  .00223814  00000+0  13968-2 0  9996
2 56082  87.4069   1.7909 0006119 282.9713  77.0879 15.76252389 60587
ONEWEB-0561             
1 56710U 23068A   24111.25001157  .00041780  00000+0  10229+0 0  9990
2 56710  87.9425  71.2442 0001333  87.1033 262.6076 13.20747390 46193
ONEWEB-0668             
1 56711U 23068B   24111.14014715  .00000290  00000+0  72523-3 0  9993
2 56711  87.9141  25.6377 0002481  84.0535 276.0878 13.16591901 48783
ONEWEB-0676             
1 56712U 23068C   24110.73485388  .00000081  00000+0  17848-3 0  9993
2 56712  87.9147  25.7176 0001574  64.7600 295.3694 13.16594037 47959
ONEWEB-0677             
1 56713U 23068D   24111.42702883  .00000127  00000+0  22826-3 0  9996
2 56713  88.3247  69.8654 0001938  66.3331 293.8014 13.34783886 46443
